{"type": "FeatureCollection", "features": [ {"type": "Feature", "properties": {"norad_id": 30358, "name": "FENGYUN 1C DEB", "group": "fengyun-1c-debris", "lat": 71.6448039053335, "lon": 147.47558835618491, "alt_km": 854.27417713462, "timestamp": "2025-12-11T07:02:24.006120+00:00", "meta": {"OBJECT_NAME": "FENGYUN 1C DEB", "OBJECT_ID": "1999-025ABV", "EPOCH": "2025-12-10T12:21:34.095744", "MEAN_MOTION": 14.20641589, "ECCENTRICITY": 0.00827346, "INCLINATION": 98.5542, "RA_OF_ASC_NODE": 173.7002, "ARG_OF_PERICENTER": 206.0375, "MEAN_ANOMALY": 209.913, "EPHEMERIS_TYPE": 0, "CLASSIFICATION_TYPE": "U", "NORAD_CAT_ID": 30358, "ELEMENT_SET_NO": 999, "REV_AT_EPOCH": 96886, "BSTAR": 0.0027515164, "MEAN_MOTION_DOT": 6.094e-05, "MEAN_MOTION_DDOT": 0}, "tle": {"line1": "1 30358U 99025ABV 25344.51497796  .00006094  00000+0  27515-2 0  9990", "line2": "2 30358  98.5542 173.7002 0082734 206.0375 209.9130 14.20641589968862"}}, "geometry": {"type": "Point", "coordinates": [147.47558835618491, 71.6448039053335]}}, {"type": "Feature", "properties": {"norad_id": 30359, "name": "FENGYUN 1C DEB", "group": "fengyun-1c-debris", "lat": -50.67671238576113, "lon": -23.932180490354707, "alt_km": 963.3240033656584, "timestamp": "2025-12-11T07:02:24.006130+00:00", "meta": {"OBJECT_NAME": "FENGYUN 1C DEB", "OBJECT_ID": "1999-025ABW", "EPOCH": "2025-12-10T17:51:47.642688", "MEAN_MOTION": 13.93979634, "ECCENTRICITY": 0.01452782, "INCLINATION": 101.6276, "RA_OF_ASC_NODE": 169.9363, "ARG_OF_PERICENTER": 347.4915, "MEAN_ANOMALY": 12.2647, "EPHEMERIS_TYPE": 0, "CLASSIFICATION_TYPE": "U", "NORAD_CAT_ID": 30359, "ELEMENT_SET_NO": 999, "REV_AT_EPOCH": 95041, "BSTAR": 0.003440294, "MEAN_MOTION_DOT": 4.902e-05, "MEAN_MOTION_DDOT": 0}, "tle": {"line1": "1 30359U 99025ABW 25344.74430142  .00004902  00000+0  34403-2 0  9998", "line2": "2 30359 101.6276 169.9363 0145278 347.4915  12.2647 13.93979634950417"}}, "geometry": {"type": "Point", "coordinates": [-23.932180490354707, -50.67671238576113]}}, {"type": "Feature", "properties": {"norad_id": 30360, "name": "FENGYUN 1C DEB", "group": "fengyun-1c-debris", "lat": 73.52529489377172, "lon": 23.44511392402259, "alt_km": 790.343155507052, "timestamp": "2025-12-11T07:02:24.006140+00:00", "meta": {"OBJECT_NAME": "FENGYUN 1C DEB", "OBJECT_ID": "1999-025ABX", "EPOCH": "2025-12-10T16:14:39.365664", "MEAN_MOTION": 14.26477224, "ECCENTRICITY": 0.0031449, "INCLINATION": 98.7648, "RA_OF_ASC_NODE": 54.2731, "ARG_OF_PERICENTER": 152.3366, "MEAN_ANOMALY": 359.952, "EPHEMERIS_TYPE": 0, "CLASSIFICATION_TYPE": "U", "NORAD_CAT_ID": 30360, "ELEMENT_SET_NO": 999, "REV_AT_EPOCH": 97395, "BSTAR": 0.0024728415, "MEAN_MOTION_DOT": 5.946e-05, "MEAN_MOTION_DDOT": 0}, "tle": {"line1": "1 30360U 99025ABX 25344.67684451  .00005946  00000+0  24728-2 0  9994", "line2": "2 30360  98.7648  54.2731 0031449 152.3366 359.9520 14.26477224973950"}}, "geometry": {"type": "Point", "coordinates": [23.44511392402259, 73.52529489377172]}}, {"type": "Feature", "properties": {"norad_id": 30361, "name": "FENGYUN 1C DEB", "group": "fengyun-1c-debris", "lat": -3.551806117458303, "lon": -159.2819058038034, "alt_km": 850.6916290203799, "timestamp": "2025-12-11T07:02:24.006151+00:00", "meta": {"OBJECT_NAME": "FENGYUN 1C DEB", "OBJECT_ID": "1999-025ABY", "EPOCH": "2025-12-10T08:17:02.195520", "MEAN_MOTION": 14.25338756, "ECCENTRICITY": 0.00653832, "INCLINATION": 98.5692, "RA_OF_ASC_NODE": 20.3281, "ARG_OF_PERICENTER": 37.7422, "MEAN_ANOMALY": 322.8318, "EPHEMERIS_TYPE": 0, "CLASSIFICATION_TYPE": "U", "NORAD_CAT_ID": 30361, "ELEMENT_SET_NO": 999, "REV_AT_EPOCH": 97582, "BSTAR": 0.0012366589, "MEAN_MOTION_DOT": 2.937e-05, "MEAN_MOTION_DDOT": 0}, "tle": {"line1": "1 30361U 99025ABY 25344.34516430  .00002937  00000+0  12367-2 0  9993", "line2": "2 30361  98.5692  20.3281 0065383  37.7422 322.8318 14.25338756975822"}}, "geometry": {"type": "Point", "coordinates": [-159.2819058038034, -3.551806117458303]}}, {"type": "Feature", "properties": {"norad_id": 30362, "name": "FENGYUN 1C DEB", "group": "fengyun-1c-debris", "lat": -74.67832681140995, "lon": 52.518774664367925, "alt_km": 859.7658906507795, "timestamp": "2025-12-11T07:02:24.006161+00:00", "meta": {"OBJECT_NAME": "FENGYUN 1C DEB", "OBJECT_ID": "1999-025ABZ", "EPOCH": "2025-12-10T06:00:17.959104", "MEAN_MOTION": 14.11790293, "ECCENTRICITY": 0.009597, "INCLINATION": 99.0483, "RA_OF_ASC_NODE": 267.0313, "ARG_OF_PERICENTER": 350.4567, "MEAN_ANOMALY": 9.4778, "EPHEMERIS_TYPE": 0, "CLASSIFICATION_TYPE": "U", "NORAD_CAT_ID": 30362, "ELEMENT_SET_NO": 999, "REV_AT_EPOCH": 96133, "BSTAR": 0.0042327, "MEAN_MOTION_DOT": 8.022e-05, "MEAN_MOTION_DDOT": 0}, "tle": {"line1": "1 30362U 99025ABZ 25344.25020786  .00008022  00000+0  42327-2 0  9998", "line2": "2 30362  99.0483 267.0313 0095970 350.4567   9.4778 14.11790293961335"}}, "geometry": {"type": "Point", "coordinates": [52.518774664367925, -74.67832681140995]}}, {"type": "Feature", "properties": {"norad_id": 30363, "name": "FENGYUN 1C DEB", "group": "fengyun-1c-debris", "lat": 52.084736789157894, "lon": -111.8110230402774, "alt_km": 823.9777019915509, "timestamp": "2025-12-11T07:02:24.006171+00:00", "meta": {"OBJECT_NAME": "FENGYUN 1C DEB", "OBJECT_ID": "1999-025ACA", "EPOCH": "2025-12-09T15:28:09.507936", "MEAN_MOTION": 14.16849111, "ECCENTRICITY": 0.0079456, "INCLINATION": 99.0304, "RA_OF_ASC_NODE": 54.7348, "ARG_OF_PERICENTER": 48.2589, "MEAN_ANOMALY": 312.5343, "EPHEMERIS_TYPE": 0, "CLASSIFICATION_TYPE": "U", "NORAD_CAT_ID": 30363, "ELEMENT_SET_NO": 999, "REV_AT_EPOCH": 96780, "BSTAR": 0.0021732, "MEAN_MOTION_DOT": 4.448e-05, "MEAN_MOTION_DDOT": 0}, "tle": {"line1": "1 30363U 99025ACA 25343.64455449  .00004448  00000+0  21732-2 0  9994", "line2": "2 30363  99.0304  54.7348 0079456  48.2589 312.5343 14.16849111967807"}}, "geometry": {"type": "Point", "coordinates": [-111.8110230402774, 52.084736789157894]}}, {"type": "Feature", "properties": {"norad_id": 30364, "name": "FENGYUN 1C DEB", "group": "fengyun-1c-debris", "lat": -61.73269348477618, "lon": 66.32502794631567, "alt_km": 800.5650511348131, "timestamp": "2025-12-11T07:02:24.006181+00:00", "meta": {"OBJECT_NAME": "FENGYUN 1C DEB", "OBJECT_ID": "1999-025ACB", "EPOCH": "2025-12-08T05:44:01.310784", "MEAN_MOTION": 14.16943722, "ECCENTRICITY": 0.03331866, "INCLINATION": 98.1364, "RA_OF_ASC_NODE": 258.9532, "ARG_OF_PERICENTER": 333.5102, "MEAN_ANOMALY": 180.7922, "EPHEMERIS_TYPE": 0, "CLASSIFICATION_TYPE": "U", "NORAD_CAT_ID": 30364, "ELEMENT_SET_NO": 999, "REV_AT_EPOCH": 95577, "BSTAR": 0.0044562781, "MEAN_MOTION_DOT": 0.00015436, "MEAN_MOTION_DDOT": 0}, "tle": {"line1": "1 30364U 99025ACB 25342.23890406  .00015436  00000+0  44563-2 0  9991", "line2": "2 30364  98.1364 258.9532 0333186 333.5102 180.7922 14.16943722955775"}}, "geometry": {"type": "Point", "coordinates": [66.32502794631567, -61.73269348477618]}}, {"type": "Feature", "properties": {"norad_id": 30365, "name": "FENGYUN 1C DEB", "group": "fengyun-1c-debris", "lat": 65.57195988895201, "lon": -39.79411169171918, "alt_km": 740.1544249694934, "timestamp": "2025-12-11T07:02:24.006192+00:00", "meta": {"OBJECT_NAME": "FENGYUN 1C DEB", "OBJECT_ID": "1999-025ACC", "EPOCH": "2025-12-10T22:24:31.912416", "MEAN_MOTION": 14.19226598, "ECCENTRICITY": 0.01679218, "INCLINATION": 98.619, "RA_OF_ASC_NODE": 339.363, "ARG_OF_PERICENTER": 116.5946, "MEAN_ANOMALY": 275.5393, "EPHEMERIS_TYPE": 0, "CLASSIFICATION_TYPE": "U", "NORAD_CAT_ID": 30365, "ELEMENT_SET_NO": 999, "REV_AT_EPOCH": 97587, "BSTAR": 0.00026802246, "MEAN_MOTION_DOT": 6.05e-06, "MEAN_MOTION_DDOT": 0}, "tle": {"line1": "1 30365U 99025ACC 25344.93370269  .00000605  00000+0  26802-3 0  9990", "line2": "2 30365  98.6190 339.3630 0167921 116.5946 275.5393 14.19226598975874"}}, "geometry": {"type": "Point", "coordinates": [-39.79411169171918, 65.57195988895201]}}, {"type": "Feature", "properties": {"norad_id": 30366, "name": "FENGYUN 1C DEB", "group": "fengyun-1c-debris", "lat": 77.80939754618535, "lon": -143.91517068261234, "alt_km": 807.6267648254843, "timestamp": "2025-12-11T07:02:24.006203+00:00", "meta": {"OBJECT_NAME": "FENGYUN 1C DEB", "OBJECT_ID": "1999-025ACD", "EPOCH": "2025-12-10T13:03:35.951040", "MEAN_MOTION": 14.3347766, "ECCENTRICITY": 0.006195, "INCLINATION": 98.9226, "RA_OF_ASC_NODE": 261.965, "ARG_OF_PERICENTER": 225.839, "MEAN_ANOMALY": 312.3759, "EPHEMERIS_TYPE": 0, "CLASSIFICATION_TYPE": "U", "NORAD_CAT_ID": 30366, "ELEMENT_SET_NO": 999, "REV_AT_EPOCH": 98291, "BSTAR": 0.00083256, "MEAN_MOTION_DOT": 2.303e-05, "MEAN_MOTION_DDOT": 0}, "tle": {"line1": "1 30366U 99025ACD 25344.54416610  .00002303  00000+0  83256-3 0  9992", "line2": "2 30366  98.9226 261.9650 0061950 225.8390 312.3759 14.33477660982915"}}, "geometry": {"type": "Point", "coordinates": [-143.91517068261234, 77.80939754618535]}}, {"type": "Feature", "properties": {"norad_id": 30368, "name": "FENGYUN 1C DEB", "group": "fengyun-1c-debris", "lat": -66.07452406065724, "lon": 112.66246171764487, "alt_km": 858.3299960505901, "timestamp": "2025-12-11T07:02:24.006213+00:00", "meta": {"OBJECT_NAME": "FENGYUN 1C DEB", "OBJECT_ID": "1999-025ACF", "EPOCH": "2025-12-09T13:32:10.444992", "MEAN_MOTION": 13.75360815, "ECCENTRICITY": 0.0186063, "INCLINATION": 99.1884, "RA_OF_ASC_NODE": 89.5997, "ARG_OF_PERICENTER": 316.4575, "MEAN_ANOMALY": 58.6375, "EPHEMERIS_TYPE": 0, "CLASSIFICATION_TYPE": "U", "NORAD_CAT_ID": 30368, "ELEMENT_SET_NO": 999, "REV_AT_EPOCH": 94618, "BSTAR": 0.0006662, "MEAN_MOTION_DOT": 6.82e-06, "MEAN_MOTION_DDOT": 0}, "tle": {"line1": "1 30368U 99025ACF 25343.56400978  .00000682  00000+0  66620-3 0  9999", "line2": "2 30368  99.1884  89.5997 0186063 316.4575  58.6375 13.75360815946184"}}, "geometry": {"type": "Point", "coordinates": [112.66246171764487, -66.07452406065724]}}]}